{
    "week": 293,
    "satellites": [
        {
            "Name": "BEIDOU-3 M24 (C46)",
            "Line1": "1 44542U 19061A   24323.08979507  .00000036  00000+0  00000+0 0  9992",
            "Line2": "2 44542  54.4253 202.1631 0008977  11.8328 348.2836  1.86229356 35063",
            "SatelliteNumber": "44542",
            "Classification": "U",
            "LaunchYear": "19",
            "LaunchNumber": "061",
            "PieceOfLaunch": "A",
            "EpochYear": "24",
            "EpochDay": 323.08979507,
            "FirstDerivativeMeanMotion": 3.6e-07,
            "SecondDerivativeMeanMotion": "00000+0",
            "BSTAR": "00000+0",
            "SetNumber": "999",
            "Inclination": 54.4253,
            "RAAN": 202.1631,
            "Eccentricity": 0.0008977,
            "ArgumentOfPerigee": 11.8328,
            "MeanAnomaly": 348.2836,
            "MeanMotion": 1.86229356,
            "RevolutionNumber": "3506"
        },
        {
            "Name": "BEIDOU-3 M23 (C45)",
            "Line1": "1 44543U 19061B   24322.37979542  .00000046  00000+0  00000+0 0  9994",
            "Line2": "2 44543  54.4238 202.1556 0005637   6.8032 149.8869  1.86229478 35054",
            "SatelliteNumber": "44543",
            "Classification": "U",
            "LaunchYear": "19",
            "LaunchNumber": "061",
            "PieceOfLaunch": "B",
            "EpochYear": "24",
            "EpochDay": 322.37979542,
            "FirstDerivativeMeanMotion": 4.6e-07,
            "SecondDerivativeMeanMotion": "00000+0",
            "BSTAR": "00000+0",
            "SetNumber": "999",
            "Inclination": 54.4238,
            "RAAN": 202.1556,
            "Eccentricity": 0.0005637,
            "ArgumentOfPerigee": 6.8032,
            "MeanAnomaly": 149.8869,
            "MeanMotion": 1.86229478,
            "RevolutionNumber": "3505"
        },
        {
            "Name": "BEIDOU-3 IGSO-3 (C40)",
            "Line1": "1 44709U 19073A   24323.31070494 -.00000206  00000+0  00000+0 0  9993",
            "Line2": "2 44709  55.7917 287.0901 0040320 190.8804 168.9621  1.00255222 18681",
            "SatelliteNumber": "44709",
            "Classification": "U",
            "LaunchYear": "19",
            "LaunchNumber": "073",
            "PieceOfLaunch": "A",
            "EpochYear": "24",
            "EpochDay": 323.31070494,
            "FirstDerivativeMeanMotion": -2.06e-06,
            "SecondDerivativeMeanMotion": "00000+0",
            "BSTAR": "00000+0",
            "SetNumber": "999",
            "Inclination": 55.7917,
            "RAAN": 287.0901,
            "Eccentricity": 0.004032,
            "ArgumentOfPerigee": 190.8804,
            "MeanAnomaly": 168.9621,
            "MeanMotion": 1.00255222,
            "RevolutionNumber": "1868"
        },
        {
            "Name": "BEIDOU-3 M22 (C44)",
            "Line1": "1 44793U 19078A   24322.39717505 -.00000079  00000+0  00000+0 0  9997",
            "Line2": "2 44793  54.4444 320.0347 0005254  10.7409 349.2743  1.86231940 33901",
            "SatelliteNumber": "44793",
            "Classification": "U",
            "LaunchYear": "19",
            "LaunchNumber": "078",
            "PieceOfLaunch": "A",
            "EpochYear": "24",
            "EpochDay": 322.39717505,
            "FirstDerivativeMeanMotion": -7.9e-07,
            "SecondDerivativeMeanMotion": "00000+0",
            "BSTAR": "00000+0",
            "SetNumber": "999",
            "Inclination": 54.4444,
            "RAAN": 320.0347,
            "Eccentricity": 0.0005254,
            "ArgumentOfPerigee": 10.7409,
            "MeanAnomaly": 349.2743,
            "MeanMotion": 1.8623194,
            "RevolutionNumber": "3390"
        },
        {
            "Name": "BEIDOU-3 M21 (C43)",
            "Line1": "1 44794U 19078B   24323.06351568 -.00000079  00000+0  00000+0 0  9996",
            "Line2": "2 44794  54.4175 319.9841 0003522 353.8521   6.1466  1.86232487 33921",
            "SatelliteNumber": "44794",
            "Classification": "U",
            "LaunchYear": "19",
            "LaunchNumber": "078",
            "PieceOfLaunch": "B",
            "EpochYear": "24",
            "EpochDay": 323.06351568,
            "FirstDerivativeMeanMotion": -7.9e-07,
            "SecondDerivativeMeanMotion": "00000+0",
            "BSTAR": "00000+0",
            "SetNumber": "999",
            "Inclination": 54.4175,
            "RAAN": 319.9841,
            "Eccentricity": 0.0003522,
            "ArgumentOfPerigee": 353.8521,
            "MeanAnomaly": 6.1466,
            "MeanMotion": 1.86232487,
            "RevolutionNumber": "3392"
        },
        {
            "Name": "BEIDOU-3 M19 (C41)",
            "Line1": "1 44864U 19090A   24320.63558649 -.00000032  00000+0  00000+0 0  9996",
            "Line2": "2 44864  56.0540  81.9965 0016356 278.7603  85.5404  1.86231291 33454",
            "SatelliteNumber": "44864",
            "Classification": "U",
            "LaunchYear": "19",
            "LaunchNumber": "090",
            "PieceOfLaunch": "A",
            "EpochYear": "24",
            "EpochDay": 320.63558649,
            "FirstDerivativeMeanMotion": -3.2e-07,
            "SecondDerivativeMeanMotion": "00000+0",
            "BSTAR": "00000+0",
            "SetNumber": "999",
            "Inclination": 56.054,
            "RAAN": 81.9965,
            "Eccentricity": 0.0016356,
            "ArgumentOfPerigee": 278.7603,
            "MeanAnomaly": 85.5404,
            "MeanMotion": 1.86231291,
            "RevolutionNumber": "3345"
        },
        {
            "Name": "BEIDOU-3 M20 (C42)",
            "Line1": "1 44865U 19090B   24323.74205713 -.00000027  00000+0  00000+0 0  9997",
            "Line2": "2 44865  56.0586  81.9262 0013813 292.6462  84.0824  1.86231367 33496",
            "SatelliteNumber": "44865",
            "Classification": "U",
            "LaunchYear": "19",
            "LaunchNumber": "090",
            "PieceOfLaunch": "B",
            "EpochYear": "24",
            "EpochDay": 323.74205713,
            "FirstDerivativeMeanMotion": -2.7e-07,
            "SecondDerivativeMeanMotion": "00000+0",
            "BSTAR": "00000+0",
            "SetNumber": "999",
            "Inclination": 56.0586,
            "RAAN": 81.9262,
            "Eccentricity": 0.0013813,
            "ArgumentOfPerigee": 292.6462,
            "MeanAnomaly": 84.0824,
            "MeanMotion": 1.86231367,
            "RevolutionNumber": "3349"
        },
        {
            "Name": "BEIDOU-3 G2 (C60)",
            "Line1": "1 45344U 20017A   24323.74910573 -.00000139  00000+0  00000+0 0  9992",
            "Line2": "2 45344   2.5296  35.0021 0004642 215.7764 157.2161  1.00271360 17501",
            "SatelliteNumber": "45344",
            "Classification": "U",
            "LaunchYear": "20",
            "LaunchNumber": "017",
            "PieceOfLaunch": "A",
            "EpochYear": "24",
            "EpochDay": 323.74910573,
            "FirstDerivativeMeanMotion": -1.39e-06,
            "SecondDerivativeMeanMotion": "00000+0",
            "BSTAR": "00000+0",
            "SetNumber": "999",
            "Inclination": 2.5296,
            "RAAN": 35.0021,
            "Eccentricity": 0.0004642,
            "ArgumentOfPerigee": 215.7764,
            "MeanAnomaly": 157.2161,
            "MeanMotion": 1.0027136,
            "RevolutionNumber": "1750"
        },
        {
            "Name": "BEIDOU-3 G3 (C61)",
            "Line1": "1 45807U 20040A   24323.53036865 -.00000351  00000+0  00000+0 0  9998",
            "Line2": "2 45807   1.0803  56.0216 0003126 298.6633   4.7886  1.00277270 16294",
            "SatelliteNumber": "45807",
            "Classification": "U",
            "LaunchYear": "20",
            "LaunchNumber": "040",
            "PieceOfLaunch": "A",
            "EpochYear": "24",
            "EpochDay": 323.53036865,
            "FirstDerivativeMeanMotion": -3.51e-06,
            "SecondDerivativeMeanMotion": "00000+0",
            "BSTAR": "00000+0",
            "SetNumber": "999",
            "Inclination": 1.0803,
            "RAAN": 56.0216,
            "Eccentricity": 0.0003126,
            "ArgumentOfPerigee": 298.6633,
            "MeanAnomaly": 4.7886,
            "MeanMotion": 1.0027727,
            "RevolutionNumber": "1629"
        },
        {
            "Name": "BEIDOU-3 G4 (C62)",
            "Line1": "1 56564U 23066A   24323.75460728 -.00000108  00000+0  00000+0 0  9994",
            "Line2": "2 56564   1.7403 288.9799 0004730 259.1962 301.8362  1.00271322  5638",
            "SatelliteNumber": "56564",
            "Classification": "U",
            "LaunchYear": "23",
            "LaunchNumber": "066",
            "PieceOfLaunch": "A",
            "EpochYear": "24",
            "EpochDay": 323.75460728,
            "FirstDerivativeMeanMotion": -1.08e-06,
            "SecondDerivativeMeanMotion": "00000+0",
            "BSTAR": "00000+0",
            "SetNumber": "999",
            "Inclination": 1.7403,
            "RAAN": 288.9799,
            "Eccentricity": 0.000473,
            "ArgumentOfPerigee": 259.1962,
            "MeanAnomaly": 301.8362,
            "MeanMotion": 1.00271322,
            "RevolutionNumber": "563"
        }
    ]
}